start=new Date('2022-10-28T00:00:00.000Z').valueOf();
sats=[{"APOAPSIS":"548.179","COUNTRY_CODE":"US","INCLINATION":"53.0550","TLE_LINE1":"1 48695U 21044BK  22300.44604307  .00002308  00000-0  17376-3 0  9998","RCS_SIZE":"LARGE","SEMIMAJOR_AXIS":"6925.347","SITE":"AFETR","NORAD_CAT_ID":"48695","OBJECT_TYPE":"PAYLOAD","OBJECT_NAME":"STARLINK-2616","RA_OF_ASC_NODE":"204.9627","MEAN_ELEMENT_THEORY":"SGP4","PERIAPSIS":"546.245","MEAN_ANOMALY":"288.3705","EPOCH":"2022-10-27T10:42:18.121248","CENTER_NAME":"EARTH","MEAN_MOTION":"15.06400577","GP_ID":"216304505","TIME_SYSTEM":"UTC","DECAY_DATE":null,"LAUNCH_DATE":"2021-05-26","PERIOD":"95.592","EPHEMERIS_TYPE":"0","REF_FRAME":"TEME","ECCENTRICITY":"0.00013960","ARG_OF_PERICENTER":"71.7436","ELEMENT_SET_NO":"999","CLASSIFICATION_TYPE":"U","REV_AT_EPOCH":"7892","MEAN_MOTION_DDOT":"0.0000000000000","TLE_LINE2":"2 48695  53.0550 204.9627 0001396  71.7436 288.3705 15.06400577 78923","OBJECT_ID":"2021-044BK","FILE":"3635758","MEAN_MOTION_DOT":"0.00002308","BSTAR":"0.00017376000000"},{"SEMIMAJOR_AXIS":"6925.297","TLE_LINE1":"1 48696U 21044BL  22300.90079061  .00006478  00000-0  45318-3 0  9992","RCS_SIZE":"LARGE","COUNTRY_CODE":"US","INCLINATION":"53.0558","APOAPSIS":"548.111","RA_OF_ASC_NODE":"207.9143","PERIAPSIS":"546.212","MEAN_ELEMENT_THEORY":"SGP4","OBJECT_NAME":"STARLINK-2753","OBJECT_TYPE":"PAYLOAD","SITE":"AFETR","NORAD_CAT_ID":"48696","DECAY_DATE":null,"LAUNCH_DATE":"2021-05-26","TIME_SYSTEM":"UTC","GP_ID":"216312750","MEAN_MOTION":"15.06416862","CENTER_NAME":"EARTH","MEAN_ANOMALY":"269.6942","EPOCH":"2022-10-27T21:37:08.308704","MEAN_MOTION_DOT":"0.00006478","BSTAR":"0.00045318000000","FILE":"3635965","OBJECT_ID":"2021-044BL","TLE_LINE2":"2 48696  53.0558 207.9143 0001371  90.4205 269.6942 15.06416862 79765","MEAN_MOTION_DDOT":"0.0000000000000","REV_AT_EPOCH":"7976","CLASSIFICATION_TYPE":"U","ELEMENT_SET_NO":"999","ARG_OF_PERICENTER":"90.4205","EPHEMERIS_TYPE":"0","PERIOD":"95.591","ECCENTRICITY":"0.00013710","REF_FRAME":"TEME"},{"LAUNCH_DATE":"2021-05-26","DECAY_DATE":null,"GP_ID":"216303003","TIME_SYSTEM":"UTC","MEAN_MOTION":"15.06402521","CENTER_NAME":"EARTH","EPOCH":"2022-10-27T11:10:49.478016","MEAN_ANOMALY":"276.3270","BSTAR":"0.00002362300000","MEAN_MOTION_DOT":"0.00000070","FILE":"3635758","OBJECT_ID":"2021-044BM","TLE_LINE2":"2 48697  53.0537 209.8312 0001526  83.7892 276.3270 15.06402521 78856","MEAN_MOTION_DDOT":"0.0000000000000","CLASSIFICATION_TYPE":"U","REV_AT_EPOCH":"7885","ELEMENT_SET_NO":"999","ARG_OF_PERICENTER":"83.7892","REF_FRAME":"TEME","ECCENTRICITY":"0.00015260","EPHEMERIS_TYPE":"0","PERIOD":"95.592","SEMIMAJOR_AXIS":"6925.341","TLE_LINE1":"1 48697U 21044BM  22300.46585044  .00000070  00000-0  23623-4 0  9995","RCS_SIZE":"LARGE","INCLINATION":"53.0537","COUNTRY_CODE":"US","APOAPSIS":"548.263","MEAN_ELEMENT_THEORY":"SGP4","PERIAPSIS":"546.149","RA_OF_ASC_NODE":"209.8312","OBJECT_NAME":"STARLINK-2715","OBJECT_TYPE":"PAYLOAD","SITE":"AFETR","NORAD_CAT_ID":"48697"},{"REF_FRAME":"TEME","ECCENTRICITY":"0.00019390","EPHEMERIS_TYPE":"0","PERIOD":"95.812","ARG_OF_PERICENTER":"58.3773","REV_AT_EPOCH":"130","ELEMENT_SET_NO":"999","CLASSIFICATION_TYPE":"U","MEAN_MOTION_DDOT":"0.0000000000000","TLE_LINE2":"2 48879  97.5157  67.5150 0001939  58.3773  70.1704 15.02935515  1300","OBJECT_ID":"2021-059A","FILE":"3636022","BSTAR":"-0.00483790000000","MEAN_MOTION_DOT":"-0.00064412","EPOCH":"2022-10-27T22:00:00.999936","MEAN_ANOMALY":"70.1704","CENTER_NAME":"EARTH","MEAN_MOTION":"15.02935515","TIME_SYSTEM":"UTC","GP_ID":"216335013","LAUNCH_DATE":"2021-06-30","DECAY_DATE":null,"OBJECT_TYPE":"PAYLOAD","SITE":"AFETR","NORAD_CAT_ID":"48879","OBJECT_NAME":"STARLINK-3003","PERIAPSIS":"556.507","MEAN_ELEMENT_THEORY":"SGP4","RA_OF_ASC_NODE":"67.5150","APOAPSIS":"559.197","INCLINATION":"97.5157","COUNTRY_CODE":"US","TLE_LINE1":"1 48879U 21059A   22300.91667824 -.00064412  00000-0 -48379-2 0  9995","RCS_SIZE":"LARGE","SEMIMAJOR_AXIS":"6935.987"},{"SEMIMAJOR_AXIS":"6936.027","TLE_LINE1":"1 48880U 21059B   22300.91667824 -.00052774  00000-0 -39579-2 0  9997","RCS_SIZE":"LARGE","COUNTRY_CODE":"US","INCLINATION":"97.5154","APOAPSIS":"559.231","OBJECT_NAME":"STARLINK-3004","RA_OF_ASC_NODE":"67.5174","PERIAPSIS":"556.553","MEAN_ELEMENT_THEORY":"SGP4","NORAD_CAT_ID":"48880","SITE":"AFETR","OBJECT_TYPE":"PAYLOAD","GP_ID":"216335261","TIME_SYSTEM":"UTC","LAUNCH_DATE":"2021-06-30","DECAY_DATE":null,"MEAN_MOTION":"15.02922531","MEAN_ANOMALY":"79.7835","EPOCH":"2022-10-27T22:00:00.999936","CENTER_NAME":"EARTH","FILE":"3636022","MEAN_MOTION_DOT":"-0.00052774","BSTAR":"-0.00395790000000","MEAN_MOTION_DDOT":"0.0000000000000","TLE_LINE2":"2 48880  97.5154  67.5174 0001930  58.0599  79.7835 15.02922531  1303","OBJECT_ID":"2021-059B","ARG_OF_PERICENTER":"58.0599","ELEMENT_SET_NO":"999","CLASSIFICATION_TYPE":"U","REV_AT_EPOCH":"130","PERIOD":"95.813","EPHEMERIS_TYPE":"0","ECCENTRICITY":"0.00019300","REF_FRAME":"TEME"},{"NORAD_CAT_ID":"48881","SITE":"AFETR","OBJECT_TYPE":"PAYLOAD","RA_OF_ASC_NODE":"67.5484","MEAN_ELEMENT_THEORY":"SGP4","PERIAPSIS":"556.588","OBJECT_NAME":"STARLINK-3005","APOAPSIS":"559.299","COUNTRY_CODE":"US","INCLINATION":"97.5147","RCS_SIZE":"LARGE","TLE_LINE1":"1 48881U 21059C   22300.91667824 -.00024352  00000-0 -18175-2 0  9998","SEMIMAJOR_AXIS":"6936.079","EPHEMERIS_TYPE":"0","PERIOD":"95.814","ECCENTRICITY":"0.00019540","REF_FRAME":"TEME","ELEMENT_SET_NO":"999","REV_AT_EPOCH":"130","CLASSIFICATION_TYPE":"U","ARG_OF_PERICENTER":"58.5099","TLE_LINE2":"2 48881  97.5147  67.5484 0001954  58.5099 102.3748 15.02905786  1305","OBJECT_ID":"2021-059C","MEAN_MOTION_DDOT":"0.0000000000000","MEAN_MOTION_DOT":"-0.00024352","BSTAR":"-0.00181750000000","FILE":"3636022","CENTER_NAME":"EARTH","MEAN_ANOMALY":"102.3748","EPOCH":"2022-10-27T22:00:00.999936","MEAN_MOTION":"15.02905786","DECAY_DATE":null,"LAUNCH_DATE":"2021-06-30","TIME_SYSTEM":"UTC","GP_ID":"216336015"},{"MEAN_MOTION_DDOT":"0.0000000000000","TLE_LINE2":"2 49131  69.9991 112.6376 0003077 253.3349 106.7473 14.98320056 62908","OBJECT_ID":"2021-082B","FILE":"3635991","BSTAR":"0.00005866900000","MEAN_MOTION_DOT":"0.00000607","REF_FRAME":"TEME","ECCENTRICITY":"0.00030770","PERIOD":"96.108","EPHEMERIS_TYPE":"0","ARG_OF_PERICENTER":"253.3349","REV_AT_EPOCH":"6290","ELEMENT_SET_NO":"999","CLASSIFICATION_TYPE":"U","TIME_SYSTEM":"UTC","GP_ID":"216312630","DECAY_DATE":null,"LAUNCH_DATE":"2021-09-14","EPOCH":"2022-10-27T21:49:56.606880","MEAN_ANOMALY":"106.7473","CENTER_NAME":"EARTH","MEAN_MOTION":"14.98320056","SITE":"AFWTR","NORAD_CAT_ID":"49131","OBJECT_TYPE":"PAYLOAD","OBJECT_NAME":"STARLINK-3096","PERIAPSIS":"569.950","MEAN_ELEMENT_THEORY":"SGP4","RA_OF_ASC_NODE":"112.6376","RCS_SIZE":"LARGE","TLE_LINE1":"1 49131U 21082B   22300.90968295  .00000607  00000-0  58669-4 0  9997","SEMIMAJOR_AXIS":"6950.224","APOAPSIS":"574.227","INCLINATION":"69.9991","COUNTRY_CODE":"US"},{"TIME_SYSTEM":"UTC","GP_ID":"216312637","DECAY_DATE":null,"LAUNCH_DATE":"2021-09-14","MEAN_MOTION":"14.98311909","EPOCH":"2022-10-27T22:37:09.975648","MEAN_ANOMALY":"125.7125","CENTER_NAME":"EARTH","FILE":"3635984","MEAN_MOTION_DOT":"0.00007965","BSTAR":"0.00067489000000","MEAN_MOTION_DDOT":"0.0000000000000","TLE_LINE2":"2 49132  70.0008 152.5549 0002978 234.3757 125.7125 14.98311909 61920","OBJECT_ID":"2021-082C","ARG_OF_PERICENTER":"234.3757","CLASSIFICATION_TYPE":"U","REV_AT_EPOCH":"6192","ELEMENT_SET_NO":"999","EPHEMERIS_TYPE":"0","PERIOD":"96.108","ECCENTRICITY":"0.00029780","REF_FRAME":"TEME","SEMIMAJOR_AXIS":"6950.249","RCS_SIZE":"LARGE","TLE_LINE1":"1 49132U 21082C   22300.94247657  .00007965  00000-0  67489-3 0  9997","COUNTRY_CODE":"US","INCLINATION":"70.0008","APOAPSIS":"574.184","OBJECT_NAME":"STARLINK-3090","RA_OF_ASC_NODE":"152.5549","PERIAPSIS":"570.044","MEAN_ELEMENT_THEORY":"SGP4","SITE":"AFWTR","NORAD_CAT_ID":"49132","OBJECT_TYPE":"PAYLOAD"},{"PERIOD":"96.107","EPHEMERIS_TYPE":"0","ECCENTRICITY":"0.00033640","REF_FRAME":"TEME","ARG_OF_PERICENTER":"240.4548","ELEMENT_SET_NO":"999","CLASSIFICATION_TYPE":"U","REV_AT_EPOCH":"6193","MEAN_MOTION_DDOT":"0.0000000000000","OBJECT_ID":"2021-082D","TLE_LINE2":"2 49133  69.9985 152.4038 0003364 240.4548 119.6276 14.98325899 61933","FILE":"3635984","MEAN_MOTION_DOT":"0.00002277","BSTAR":"0.00019862000000","MEAN_ANOMALY":"119.6276","EPOCH":"2022-10-28T00:06:25.966944","CENTER_NAME":"EARTH","MEAN_MOTION":"14.98325899","GP_ID":"216313038","TIME_SYSTEM":"UTC","LAUNCH_DATE":"2021-09-14","DECAY_DATE":null,"OBJECT_TYPE":"PAYLOAD","SITE":"AFWTR","NORAD_CAT_ID":"49133","OBJECT_NAME":"STARLINK-3077","RA_OF_ASC_NODE":"152.4038","PERIAPSIS":"569.733","MEAN_ELEMENT_THEORY":"SGP4","APOAPSIS":"574.409","COUNTRY_CODE":"US","INCLINATION":"69.9985","RCS_SIZE":"LARGE","TLE_LINE1":"1 49133U 21082D   22301.00446721  .00002277  00000-0  19862-3 0  9992","SEMIMAJOR_AXIS":"6950.206"},{"FILE":"3635984","BSTAR":"0.00029729000000","MEAN_MOTION_DOT":"0.00003457","MEAN_MOTION_DDOT":"0.0000000000000","OBJECT_ID":"2021-082E","TLE_LINE2":"2 49134  69.9998 152.4269 0003128 255.1290 104.9523 14.98342309 63130","ARG_OF_PERICENTER":"255.1290","CLASSIFICATION_TYPE":"U","ELEMENT_SET_NO":"999","REV_AT_EPOCH":"6313","ECCENTRICITY":"0.00031280","REF_FRAME":"TEME","EPHEMERIS_TYPE":"0","PERIOD":"96.106","GP_ID":"216313048","TIME_SYSTEM":"UTC","DECAY_DATE":null,"LAUNCH_DATE":"2021-09-14","MEAN_MOTION":"14.98342309","EPOCH":"2022-10-27T23:59:33.866592","MEAN_ANOMALY":"104.9523","CENTER_NAME":"EARTH","OBJECT_NAME":"STARLINK-3078","MEAN_ELEMENT_THEORY":"SGP4","PERIAPSIS":"569.846","RA_OF_ASC_NODE":"152.4269","OBJECT_TYPE":"PAYLOAD","SITE":"AFWTR","NORAD_CAT_ID":"49134","SEMIMAJOR_AXIS":"6950.155","TLE_LINE1":"1 49134U 21082E   22300.99969753  .00003457  00000-0  29729-3 0  9999","RCS_SIZE":"LARGE","INCLINATION":"69.9998","COUNTRY_CODE":"US","APOAPSIS":"574.194"}];
